0 OPS 4682 DEB
1 14716U 65027P   13278.90997076  .00000911  00000-0  30995-2 0  4104
2 14716 090.2898 255.4782 0026146 309.2402 077.8765 12.97746156838242
0 OPS 4682 DEB
1 14716U 65027P   13279.91221119  .00000837  00000-0  28460-2 0  4116
2 14716 090.2902 255.5051 0026057 306.6191 080.2099 12.97748362838378
0 OPS 4682 DEB
1 14716U 65027P   13280.91463233  .00000693  00000-0  23516-2 0  4121
2 14716 090.2904 255.5319 0025984 303.8923 083.4957 12.97751432838502
0 OPS 4682 DEB
1 14716U 65027P   13283.23518759  .00000072  00000-0  22360-3 0  4132
2 14716 090.2908 255.5940 0025807 297.5430 125.1333 12.97759589838808
0 OPS 4682 DEB
1 14716U 65027P   13287.69349036  .00000072  00000-0  22360-3 0  4147
2 14716 090.2870 255.7101 0028198 290.9373 068.8585 12.97755545839380
0 OPS 4682 DEB
1 14716U 65027P   13288.41487925 -.00000216  00000-0 -76291-3 0  4153
2 14716 090.2911 255.7319 0025694 282.9111 205.3123 12.97761678839476
0 OPS 4682 DEB
1 14716U 65027P   13290.72541531  .00000342  00000-0  11468-2 0  4167
2 14716 090.2904 255.7923 0025468 276.4905 200.3435 12.97755471839775
0 OPS 4682 DEB
1 14716U 65027P   13292.35337700  .00000761  00000-0  25834-2 0  4177
2 14716 090.2908 255.8358 0025456 271.9062 246.3638 12.97752822839988
